NORAD_CAT_ID,OBJECT_NAME,OBJECT_TYPE,EPOCH,MEAN_MOTION,ECCENTRICITY,INCLINATION,RA_OF_ASC_NODE,ARG_OF_PERICENTER,MEAN_ANOMALY,BSTAR,MEAN_MOTION_DOT,MEAN_MOTION_DDOT,TLE_LINE0,TLE_LINE1,TLE_LINE2,SEMIMAJOR_AXIS,PERIOD,APOGEE,PERIGEE,DECAYED
51739.0,STARLINK-3516,PAYLOAD,2022-10-21 11:16:32,15.08844958,0.0002023,53.218,104.245,52.7871,307.3306,8.229299999999999e-05,1.022e-05,0.0,0 STARLINK-3516,1 51739U 22016AB  22294.46982088  .00001022  00000-0  82293-4 0  9993,2 51739  53.2180 104.2450 0002023  52.7871 307.3306 15.08844958 37081,6917.865,95.437,541.13,538.331,0.0
51739.0,STARLINK-3516,PAYLOAD,2022-10-21 19:13:27,15.08846353,0.0001974,53.2185,102.7574,53.6741,306.4433,0.00013971,1.936e-05,0.0,0 STARLINK-3516,1 51739U 22016AB  22294.80101720  .00001936  00000-0  13971-3 0  9997,2 51739  53.2185 102.7574 0001974  53.6741 306.4433 15.08846353 37134,6917.861,95.437,541.092,538.36,0.0
51739.0,STARLINK-3516,PAYLOAD,2022-10-22 04:45:47,15.08838322,0.0001938,53.2186,100.9735,53.3051,306.8119,3.0467e-05,1.97e-06,0.0,0 STARLINK-3516,1 51739U 22016AB  22295.19846726  .00000197  00000-0  30467-4 0  9990,2 51739  53.2186 100.9735 0001938  53.3051 306.8119 15.08838322 38318,6917.886,95.438,541.091,538.41,0.0
51739.0,STARLINK-3516,PAYLOAD,2022-10-22 12:42:43,15.0884117,0.0001963,53.2186,99.4869,53.159,306.9582,6.1178e-05,6.86e-06,0.0,0 STARLINK-3516,1 51739U 22016AB  22295.52966553  .00000686  00000-0  61178-4 0  9994,2 51739  53.2186  99.4869 0001963  53.1590 306.9582 15.08841170 37243,6917.877,95.437,541.1,538.384,0.0
51739.0,STARLINK-3516,PAYLOAD,2022-10-22 20:39:38,15.08847456,0.0001985,53.2175,97.9999,53.1126,307.0048,0.00016626,2.359e-05,0.0,0 STARLINK-3516,1 51739U 22016AB  22295.86086219  .00002359  00000-0  16626-3 0  9999,2 51739  53.2175  97.9999 0001985  53.1126 307.0048 15.08847456 37294,6917.858,95.437,541.096,538.349,0.0
51739.0,STARLINK-3516,PAYLOAD,2022-10-23 01:25:47,15.08853239,0.0001995,53.2175,97.1079,53.1127,307.0048,0.00025633,3.795e-05,0.0,0 STARLINK-3516,1 51739U 22016AB  22296.05957952  .00003795  00000-0  25633-3 0  9995,2 51739  53.2175  97.1079 0001995  53.1127 307.0048 15.08853239 38441,6917.84,95.437,541.085,538.325,0.0
51739.0,STARLINK-3516,PAYLOAD,2022-10-23 12:33:29,15.08846407,0.0002029,53.2173,95.0264,52.3724,307.7452,0.00017002,2.419e-05,0.0,0 STARLINK-3516,1 51739U 22016AB  22296.52326084  .00002419  00000-0  17002-3 0  9996,2 51739  53.2173  95.0264 0002029  52.3724 307.7452 15.08846407 37393,6917.861,95.437,541.129,538.322,0.0
51739.0,STARLINK-3516,PAYLOAD,2022-10-23 18:55:02,15.08844419,0.0001992,53.2175,93.8367,52.232,307.8852,0.00010178,1.332e-05,0.0,0 STARLINK-3516,1 51739U 22016AB  22296.78822101  .00001332  00000-0  10178-3 0  9995,2 51739  53.2175  93.8367 0001992  52.2320 307.8852 15.08844419 37435,6917.8669999999975,95.437,541.11,538.354,0.0
51739.0,STARLINK-3516,PAYLOAD,2022-10-24 12:24:16,15.08839076,0.000196,53.2177,90.5658,51.0526,309.0641,-2.7392e-06,-3.32e-06,0.0,0 STARLINK-3516,1 51739U 22016AB  22297.51686112 -.00000332  00000-0 -27392-5 0  9996,2 51739  53.2177  90.5658 0001960  51.0526 309.0641 15.08839076 37549,6917.8830000000025,95.438,541.104,538.3919999999998,0.0
51739.0,STARLINK-3516,PAYLOAD,2022-10-24 12:24:17,15.08835935,0.0001950999999999,53.2178,90.5659,51.1895,308.9271,4.7789e-06,-2.12e-06,0.0,0 STARLINK-3516,1 51739U 22016AB  22297.51686347 -.00000212  00000-0  47789-5 0  9994,2 51739  53.2178  90.5659 0001951  51.1895 308.9271 15.08835935 38662,6917.893,95.438,541.107,538.408,0.0
51739.0,STARLINK-3516,PAYLOAD,2022-10-24 18:45:50,15.08821644,0.0001894,53.219,89.37700000000002,48.7071,311.4084,-9.8303e-05,-1.852e-05,0.0,0 STARLINK-3516,1 51739U 22016AB  22297.78183817 -.00001852  00000-0 -98303-4 0  9996,2 51739  53.2190  89.3770 0001894  48.7071 311.4084 15.08821644 37583,6917.936,95.439,541.112,538.491,0.0
51739.0,STARLINK-3516,PAYLOAD,2022-10-24 20:21:14,15.08820376,0.0001904,53.219,89.0796,48.4767,311.6388,-0.00010176,-1.906e-05,0.0,0 STARLINK-3516,1 51739U 22016AB  22297.84807942 -.00001906  00000-0 -10176-3 0  9996,2 51739  53.2190  89.0796 0001904  48.4767 311.6388 15.08820376 38715,6917.94,95.439,541.123,538.488,0.0
51739.0,STARLINK-3516,PAYLOAD,2022-10-25 10:39:42,15.08827457,0.0001839,53.2192,86.4034,49.9011,310.2142,-0.0001196,-2.19e-05,0.0,0 STARLINK-3516,1 51739U 22016AB  22298.44423929 -.00002190  00000-0 -11960-3 0  9990,2 51739  53.2192  86.4034 0001839  49.9011 310.2142 15.08827457 38808,6917.919,95.438,541.056,538.512,0.0
51739.0,STARLINK-3516,PAYLOAD,2022-10-25 12:15:05,15.08827695,0.0001833,53.2191,86.10600000000002,49.0096,311.1055,-0.00011534,-2.123e-05,0.0,0 STARLINK-3516,1 51739U 22016AB  22298.51047962 -.00002123  00000-0 -11534-3 0  9990,2 51739  53.2191  86.1060 0001833  49.0096 311.1055 15.08827695 37694,6917.918000000002,95.438,541.0509999999998,538.515,0.0
51739.0,STARLINK-3516,PAYLOAD,2022-10-25 18:36:38,15.08824611,0.0001868,53.2192,84.9167,47.9154,312.1997,-1.2695999999999997e-05,-4.9000000000000005e-06,0.0,0 STARLINK-3516,1 51739U 22016AB  22298.77544099 -.00000490  00000-0 -12696-4 0  9997,2 51739  53.2192  84.9167 0001868  47.9154 312.1997 15.08824611 37735,6917.927,95.439,541.085,538.5,0.0
51739.0,STARLINK-3516,PAYLOAD,2022-10-26 12:05:52,15.08834232,0.0001864,53.2193,81.6459,46.4362,313.6785,2.5213e-05,1.13e-06,0.0,0 STARLINK-3516,1 51739U 22016AB  22299.50407998  .00000113  00000-0  25213-4 0  9994,2 51739  53.2193  81.6459 0001864  46.4362 313.6785 15.08834232 38962,6917.898,95.438,541.053,538.474,0.0
51739.0,STARLINK-3516,PAYLOAD,2022-10-26 20:02:48,15.08836966,0.000188,53.2193,80.1592,46.7604,313.3545,9.8137e-05,1.274e-05,0.0,0 STARLINK-3516,1 51739U 22016AB  22299.83527909  .00001274  00000-0  98137-4 0  9999,2 51739  53.2193  80.1592 0001880  46.7604 313.3545 15.08836966 37892,6917.89,95.438,541.055,538.4540000000002,0.0
51739.0,STARLINK-3516,PAYLOAD,2022-10-27 11:56:39,15.088499800000005,0.0001886999999999,53.2188,77.1854,46.5234,313.5915,0.00042661,6.51e-05,0.0,0 STARLINK-3516,1 51739U 22016AB  22300.49767867  .00006510  00000-0  42661-3 0  9991,2 51739  53.2188  77.1854 0001887  46.5234 313.5915 15.08849980 39117,6917.85,95.437,541.02,538.409,0.0
51739.0,STARLINK-3516,PAYLOAD,2022-10-27 18:18:11,15.088642000000002,0.0001895,53.2185,75.99600000000002,45.9865,314.1283,0.00065503,0.00010159,0.0,0 STARLINK-3516,1 51739U 22016AB  22300.76263422  .00010159  00000-0  65503-3 0  9993,2 51739  53.2185  75.9960 0001895  45.9865 314.1283 15.08864200 38037,6917.806,95.436,540.982,538.36,0.0
51739.0,STARLINK-3516,PAYLOAD,2022-10-27 21:28:57,15.08871161,0.0001913,53.2184,75.4012,45.7083,314.4066,0.00080832,0.00012611,0.0,0 STARLINK-3516,1 51739U 22016AB  22300.89511140  .00012611  00000-0  80832-3 0  9997,2 51739  53.2184  75.4012 0001913  45.7083 314.4066 15.08871161 39172,6917.785,95.436,540.974,538.327,0.0
51739.0,STARLINK-3516,PAYLOAD,2022-10-28 13:22:48,15.08865953,0.0001932,53.2185,72.4278,46.8962,313.2191,0.00033518,5.054e-05,0.0,0 STARLINK-3516,1 51739U 22016AB  22301.55750311  .00005054  00000-0  33518-3 0  9998,2 51739  53.2185  72.4278 0001932  46.8962 313.2191 15.08865953 38158,6917.801,95.436,541.003,538.33,0.0
51739.0,STARLINK-3516,PAYLOAD,2022-10-28 18:08:57,15.08861645,0.0001939,53.2185,71.5356,46.0927,314.0225,0.00020911,3.043e-05,0.0,0 STARLINK-3516,1 51739U 22016AB  22301.75622206  .00003043  00000-0  20911-3 0  9990,2 51739  53.2185  71.5356 0001939  46.0927 314.0225 15.08861645 38189,6917.814,95.436,541.021,538.3380000000002,0.0
51739.0,STARLINK-3516,PAYLOAD,2022-10-29 08:27:25,15.08851175,0.0001806,53.2186,68.8599,48.7442,311.3706,6.1084e-05,6.84e-06,0.0,0 STARLINK-3516,1 51739U 22016AB  22302.35238033  .00000684  00000-0  61084-4 0  9993,2 51739  53.2186  68.8599 0001806  48.7442 311.3706 15.08851175 39397,6917.846,95.437,540.961,538.462,0.0
51739.0,STARLINK-3516,PAYLOAD,2022-10-29 17:59:44,15.08856513,0.000181,53.2184,67.0739,52.9857,307.13,8.4668e-05,1.06e-05,0.0,0 STARLINK-3516,1 51739U 22016AB  22302.74981543  .00001060  00000-0  84668-4 0  9999,2 51739  53.2184  67.0739 0001810  52.9857 307.1300 15.08856513 38331,6917.83,95.437,540.947,538.443,0.0
51739.0,STARLINK-3516,PAYLOAD,2022-10-30 11:28:58,15.08851942,0.0002034,53.2191,63.8043,38.4825,321.6312,4.9864e-05,5.06e-06,0.0,0 STARLINK-3516,1 51739U 22016AB  22303.47845198  .00000506  00000-0  49864-4 0  9998,2 51739  53.2191  63.8043 0002034  38.4825 321.6312 15.08851942 38441,6917.844,95.437,541.116,538.302,0.0
51739.0,STARLINK-3516,PAYLOAD,2022-10-30 17:50:31,15.08842998,0.0001733999999999,53.219,62.6155,42.5719,317.5407,-1.7453e-05,-5.66e-06,0.0,0 STARLINK-3516,1 51739U 22016AB  22303.74341551 -.00000566  00000-0 -17453-4 0  9999,2 51739  53.2190  62.6155 0001734  42.5719 317.5407 15.08842998 38489,6917.871,95.437,540.936,538.5369999999998,0.0
51739.0,STARLINK-3516,PAYLOAD,2022-10-31 09:44:25,15.08797849,0.0001817,53.2191,59.6421,43.4887,316.6248,-0.0003216,-5.397e-05,0.0,0 STARLINK-3516,1 51739U 22016AB  22304.40585565 -.00005397  00000-0 -32160-3 0  9996,2 51739  53.2191  59.6421 0001817  43.4887 316.6248 15.08797849 38588,6918.009,95.44,541.131,538.617,0.0
51739.0,STARLINK-3516,PAYLOAD,2022-10-31 14:30:33,15.08821119,0.0001903,53.2193,58.75,41.7352,318.3785,-0.00010954,-2.03e-05,0.0,0 STARLINK-3516,1 51739U 22016AB  22304.60455875 -.00002030  00000-0 -10954-3 0  9996,2 51739  53.2193  58.7500 0001903  41.7352 318.3785 15.08821119 39733,6917.938,95.439,541.12,538.487,0.0
51739.0,STARLINK-3516,PAYLOAD,2022-11-01 03:13:38,15.08834964,0.0002275,53.219,56.3722,40.2554,319.8606,-1.8959e-05,-5.9e-06,0.0,0 STARLINK-3516,1 51739U 22016AB  22305.13447135 -.00000590  00000-0 -18959-4 0  9998,2 51739  53.2190  56.3722 0002275  40.2554 319.8606 15.08834964 39810,6917.896,95.438,541.335,538.187,0.0
